IRIDIUM 126             
1 42809U 17039G   24248.55720481  .00000047  00000+0  95804-5 0  9996
2 42809  86.3910 265.5084 0002178  87.3504 272.7941 14.34216896376694
IRIDIUM 124             
1 42810U 17039H   24248.38246102  .00001618  00000+0  47499-3 0  9992
2 42810  86.4537 202.3447 0002100  87.9398 272.2044 14.43286347381240
IRIDIUM 128             
1 42811U 17039J   24248.75724517  .00000904  00000+0  31559-3 0  9992
2 42811  86.3943 296.9738 0001951  90.5056 269.6364 14.34221795376758
IRIDIUM 121             
1 42812U 17039K   24248.50646468  .00000353  00000+0  11902-3 0  9992
2 42812  86.3911 265.5528 0002182  91.7979 268.3466 14.34219802376561
IRIDIUM 133             
1 42955U 17061A   24248.50988931  .00000441  00000+0  15056-3 0  9991
2 42955  86.3946 297.1788 0002289  92.0154 268.1304 14.34217968361512
IRIDIUM 100             
1 42956U 17061B   24248.71285348  .00001033  00000+0  36190-3 0  9997
2 42956  86.3944 297.0277 0002100  94.0229 266.1206 14.34220386361540
IRIDIUM 122             
1 42957U 17061C   24247.49507423  .00000046  00000+0  94829-5 0  9991
2 42957  86.3947 297.5357 0002104  88.2040 271.9397 14.34216493361378
IRIDIUM 129             
1 42958U 17061D   24249.12512335  .00000067  00000+0  16757-4 0  9998
2 42958  86.3945 296.9142 0002294  86.1894 273.9564 14.34215779361628
